{
  "type": "FeatureCollection",
  "features": [
    {
      "type": "Feature",
      "properties": {
        "norad_id": 66640,
        "name": "STARLINK-35921",
        "group": "last-30-days",
        "lat": 36.72603086519553,
        "lon": -26.255165762950558,
        "alt_km": 410.33420967450456,
        "timestamp": "2025-12-12T14:39:16.772260+00:00",
        "meta_object_name": "STARLINK-35921",
        "meta_object_id": "2025-271Z",
        "meta_epoch": "2025-12-12T06:00:00.999648",
        "meta_mean_motion": 15.51878472,
        "meta_eccentricity": 0.00011721,
        "meta_inclination": 53.1596,
        "meta_ra_of_asc_node": 189.486,
        "meta_arg_of_pericenter": 83.8702,
        "meta_mean_anomaly": 192.9243,
        "meta_ephemeris_type": 0,
        "meta_classification_type": "U",
        "meta_norad_cat_id": 66640,
        "meta_element_set_no": 999,
        "meta_rev_at_epoch": 416,
        "meta_bstar": -0.034435637,
        "meta_mean_motion_dot": -0.01855575,
        "meta_mean_motion_ddot": 0,
        "tle_line1": "1 66640U 25271Z   25346.25001157 -.01855575  00000+0 -34436-1 0  9998",
        "tle_line2": "2 66640  53.1596 189.4860 0001172  83.8702 192.9243 15.51878472  4167"
      },
      "geometry": {
        "type": "Point",
        "coordinates": [
          -26.255165762950558,
          36.72603086519553
        ]
      }
    },
    {
      "type": "Feature",
      "properties": {
        "norad_id": 66641,
        "name": "STARLINK-35923",
        "group": "last-30-days",
        "lat": 31.441555283807173,
        "lon": -19.54380517872466,
        "alt_km": 411.1428285028778,
        "timestamp": "2025-12-12T14:39:16.772270+00:00",
        "meta_object_name": "STARLINK-35923",
        "meta_object_id": "2025-271AA",
        "meta_epoch": "2025-12-12T06:00:00.999648",
        "meta_mean_motion": 15.51882027,
        "meta_eccentricity": 0.00012424,
        "meta_inclination": 53.1592,
        "meta_ra_of_asc_node": 189.469,
        "meta_arg_of_pericenter": 93.4835,
        "meta_mean_anomaly": 190.973,
        "meta_ephemeris_type": 0,
        "meta_classification_type": "U",
        "meta_norad_cat_id": 66641,
        "meta_element_set_no": 999,
        "meta_rev_at_epoch": 416,
        "meta_bstar": -0.03446881,
        "meta_mean_motion_dot": -0.01857406,
        "meta_mean_motion_ddot": 0,
        "tle_line1": "1 66641U 25271AA  25346.25001157 -.01857406  00000+0 -34469-1 0  9990",
        "tle_line2": "2 66641  53.1592 189.4690 0001242  93.4835 190.9730 15.51882027  4167"
      },
      "geometry": {
        "type": "Point",
        "coordinates": [
          -19.54380517872466,
          31.441555283807173
        ]
      }
    },
    {
      "type": "Feature",
      "properties": {
        "norad_id": 66642,
        "name": "STARLINK-35926",
        "group": "last-30-days",
        "lat": 32.78867504272716,
        "lon": -21.135112021573654,
        "alt_km": 410.79127879175303,
        "timestamp": "2025-12-12T14:39:16.772280+00:00",
        "meta_object_name": "STARLINK-35926",
        "meta_object_id": "2025-271AB",
        "meta_epoch": "2025-12-12T06:00:00.999648",
        "meta_mean_motion": 15.51872664,
        "meta_eccentricity": 9.604e-05,
        "meta_inclination": 53.1591,
        "meta_ra_of_asc_node": 189.4738,
        "meta_arg_of_pericenter": 93.0733,
        "meta_mean_anomaly": 189.4695,
        "meta_ephemeris_type": 0,
        "meta_classification_type": "U",
        "meta_norad_cat_id": 66642,
        "meta_element_set_no": 999,
        "meta_rev_at_epoch": 392,
        "meta_bstar": -0.03356563,
        "meta_mean_motion_dot": -0.01813575,
        "meta_mean_motion_ddot": 0,
        "tle_line1": "1 66642U 25271AB  25346.25001157 -.01813575  00000+0 -33566-1 0  9997",
        "tle_line2": "2 66642  53.1591 189.4738 0000960  93.0733 189.4695 15.51872664  3921"
      },
      "geometry": {
        "type": "Point",
        "coordinates": [
          -21.135112021573654,
          32.78867504272716
        ]
      }
    },
    {
      "type": "Feature",
      "properties": {
        "norad_id": 66643,
        "name": "STARLINK-35918",
        "group": "last-30-days",
        "lat": 35.440527395985114,
        "lon": -24.496948358474913,
        "alt_km": 410.5518315384288,
        "timestamp": "2025-12-12T14:39:16.772289+00:00",
        "meta_object_name": "STARLINK-35918",
        "meta_object_id": "2025-271AC",
        "meta_epoch": "2025-12-12T06:00:00.999648",
        "meta_mean_motion": 15.51879097,
        "meta_eccentricity": 0.00012029,
        "meta_inclination": 53.1594,
        "meta_ra_of_asc_node": 189.4821,
        "meta_arg_of_pericenter": 84.917,
        "meta_mean_anomaly": 193.796,
        "meta_ephemeris_type": 0,
        "meta_classification_type": "U",
        "meta_norad_cat_id": 66643,
        "meta_element_set_no": 999,
        "meta_rev_at_epoch": 416,
        "meta_bstar": -0.034574628,
        "meta_mean_motion_dot": -0.01862243,
        "meta_mean_motion_ddot": 0,
        "tle_line1": "1 66643U 25271AC  25346.25001157 -.01862243  00000+0 -34575-1 0  9995",
        "tle_line2": "2 66643  53.1594 189.4821 0001202  84.9170 193.7960 15.51879097  4169"
      },
      "geometry": {
        "type": "Point",
        "coordinates": [
          -24.496948358474913,
          35.440527395985114
        ]
      }
    },
    {
      "type": "Feature",
      "properties": {
        "norad_id": 66644,
        "name": "STARLINK-35938",
        "group": "last-30-days",
        "lat": 34.12205418842157,
        "lon": -22.783647290447334,
        "alt_km": 410.73710563842815,
        "timestamp": "2025-12-12T14:39:16.772298+00:00",
        "meta_object_name": "STARLINK-35938",
        "meta_object_id": "2025-271AD",
        "meta_epoch": "2025-12-12T06:00:00.999648",
        "meta_mean_motion": 15.51870179,
        "meta_eccentricity": 0.00010957,
        "meta_inclination": 53.1597,
        "meta_ra_of_asc_node": 189.4782,
        "meta_arg_of_pericenter": 86.2603,
        "meta_mean_anomaly": 194.3679,
        "meta_ephemeris_type": 0,
        "meta_classification_type": "U",
        "meta_norad_cat_id": 66644,
        "meta_element_set_no": 999,
        "meta_rev_at_epoch": 416,
        "meta_bstar": -0.03365991,
        "meta_mean_motion_dot": -0.01818017,
        "meta_mean_motion_ddot": 0,
        "tle_line1": "1 66644U 25271AD  25346.25001157 -.01818017  00000+0 -33660-1 0  9990",
        "tle_line2": "2 66644  53.1597 189.4782 0001095  86.2603 194.3679 15.51870179  4161"
      },
      "geometry": {
        "type": "Point",
        "coordinates": [
          -22.783647290447334,
          34.12205418842157
        ]
      }
    },
    {
      "type": "Feature",
      "properties": {
        "norad_id": 66645,
        "name": "SHENZHOU-22",
        "group": "last-30-days",
        "lat": 27.681294902904245,
        "lon": 161.04676657210544,
        "alt_km": 387.1322322618198,
        "timestamp": "2025-12-12T14:39:16.772307+00:00",
        "meta_object_name": "SHENZHOU-22",
        "meta_object_id": "2025-272A",
        "meta_epoch": "2025-12-12T03:18:59.276448",
        "meta_mean_motion": 15.59138453,
        "meta_eccentricity": 0.0008469,
        "meta_inclination": 41.4684,
        "meta_ra_of_asc_node": 20.3596,
        "meta_arg_of_pericenter": 25.2431,
        "meta_mean_anomaly": 334.882,
        "meta_ephemeris_type": 0,
        "meta_classification_type": "U",
        "meta_norad_cat_id": 66645,
        "meta_element_set_no": 999,
        "meta_rev_at_epoch": 26357,
        "meta_bstar": 0.00037752271,
        "meta_mean_motion_dot": 0.00030211,
        "meta_mean_motion_ddot": 0,
        "tle_line1": "1 66645U 25272A   25346.13818607  .00030211  00000+0  37752-3 0  9992",
        "tle_line2": "2 66645  41.4684  20.3596 0008469  25.2431 334.8820 15.59138453263570"
      },
      "geometry": {
        "type": "Point",
        "coordinates": [
          161.04676657210544,
          27.681294902904245
        ]
      }
    },
    {
      "type": "Feature",
      "properties": {
        "norad_id": 66647,
        "name": "COSMOS 2597 (RODNIK-S 22)",
        "group": "last-30-days",
        "lat": -70.41193059476502,
        "lon": 128.2589318667226,
        "alt_km": 1500.690610844872,
        "timestamp": "2025-12-12T14:39:16.772316+00:00",
        "meta_object_name": "COSMOS 2597 (RODNIK-S 22)",
        "meta_object_id": "2025-273A",
        "meta_epoch": "2025-12-12T05:34:06.807936",
        "meta_mean_motion": 12.41951335,
        "meta_eccentricity": 0.00079,
        "meta_inclination": 82.4987,
        "meta_ra_of_asc_node": 286.7642,
        "meta_arg_of_pericenter": 290.3875,
        "meta_mean_anomaly": 69.6356,
        "meta_ephemeris_type": 0,
        "meta_classification_type": "U",
        "meta_norad_cat_id": 66647,
        "meta_element_set_no": 999,
        "meta_rev_at_epoch": 207,
        "meta_bstar": 0.00015314188,
        "meta_mean_motion_dot": 3.1e-07,
        "meta_mean_motion_ddot": 0,
        "tle_line1": "1 66647U 25273A   25346.23202324  .00000031  00000+0  15314-3 0  9996",
        "tle_line2": "2 66647  82.4987 286.7642 0007900 290.3875  69.6356 12.41951335  2072"
      },
      "geometry": {
        "type": "Point",
        "coordinates": [
          128.2589318667226,
          -70.41193059476502
        ]
      }
    }
  ]
}